[
    {
        "Altitude(m)": 611967.2038190183,
        "Argument of Periapsis(deg)": 0.0,
        "Eccentricity": 0.0,
        "Inclination(deg)": 60.0,
        "Latitude(deg)": 59.140237014766164,
        "Longitude(deg)": 56.09195470681988,
        "Mean Anomaly(deg)": 98.18179999999998,
        "RAAN(deg)": 50.0,
        "Satellite Name": "Test1 226",
        "Satellite Number": 226,
        "Semi-Major Axis(m)": 6980739.136638005,
        "Time(s)": 0
    },
    {
        "Altitude(m)": 611934.4041487074,
        "Argument of Periapsis(deg)": 0.00010418945913296404,
        "Eccentricity": 0.0,
        "Inclination(deg)": 60.0,
        "Latitude(deg)": 58.986600397206985,
        "Longitude(deg)": 57.21520353443495,
        "Mean Anomaly(deg)": 98.80190614546183,
        "RAAN(deg)": 49.99957995086026,
        "Satellite Name": "Test1 226",
        "Satellite Number": 226,
        "Semi-Major Axis(m)": 6980739.136638005,
        "Time(s)": 10
    }
]